UDFString1,Street_address,CITY,state,zipcode,country,test,store_nbr
1251573,8785 Branch Avenue,CLINTON,MD,20735,USA,TEST1443,1443
1251927,8785 Branch Avenue,CLINTON,MD,20735,USA,TEST1443,1443
1252042,8785 Branch Avenue,CLINTON,MD,20735,USA,TEST1443,1443
1252207,8785 Branch Avenue,CLINTON,MD,20735,USA,TEST1443,1443
1253211,8785 Branch Avenue,CLINTON,MD,20735,USA,TEST1443,1443
1253331,8785 Branch Avenue,CLINTON,MD,20735,USA,TEST1443,1443
1253917,8785 Branch Avenue,CLINTON,MD,20735,USA,TEST1443,1443
1254084,8785 Branch Avenue,CLINTON,MD,20735,USA,TEST1443,1443
1255229,8785 Branch Avenue,CLINTON,MD,20735,USA,TEST1443,1443
1255242,8785 Branch Avenue,CLINTON,MD,20735,USA,TEST1443,1443
1255290,8785 Branch Avenue,CLINTON,MD,20735,USA,TEST1443,1443
1256205,8785 Branch Avenue,CLINTON,MD,20735,USA,TEST1443,1443
1259525,8785 Branch Avenue,CLINTON,MD,20735,USA,TEST1443,1443
1263761,8785 Branch Avenue,CLINTON,MD,20735,USA,TEST1443,1443
1263774,8785 Branch Avenue,CLINTON,MD,20735,USA,TEST1443,1443
1263804,8785 Branch Avenue,CLINTON,MD,20735,USA,TEST1443,1443
1271953,8785 Branch Avenue,CLINTON,MD,20735,USA,TEST1443,1443
1279830,8785 Branch Avenue,CLINTON,MD,20735,USA,TEST1443,1443
1279855,8785 Branch Avenue,CLINTON,MD,20735,USA,TEST1443,1443
1291806,8785 Branch Avenue,CLINTON,MD,20735,USA,TEST1443,1443
1291842,8785 Branch Avenue,CLINTON,MD,20735,USA,TEST1443,1443
1291906,8785 Branch Avenue,CLINTON,MD,20735,USA,TEST1443,1443
1292045,8785 Branch Avenue,CLINTON,MD,20735,USA,TEST1443,1443
1292230,8785 Branch Avenue,CLINTON,MD,20735,USA,TEST1443,1443
1292275,8785 Branch Avenue,CLINTON,MD,20735,USA,TEST1443,1443
1292549,8785 Branch Avenue,CLINTON,MD,20735,USA,TEST1443,1443
1292821,8785 Branch Avenue,CLINTON,MD,20735,USA,TEST1443,1443
1293004,8785 Branch Avenue,CLINTON,MD,20735,USA,TEST1443,1443
1293356,8785 Branch Avenue,CLINTON,MD,20735,USA,TEST1443,1443
1294807,8785 Branch Avenue,CLINTON,MD,20735,USA,TEST1443,1443
1294816,8785 Branch Avenue,CLINTON,MD,20735,USA,TEST1443,1443
1294904,8785 Branch Avenue,CLINTON,MD,20735,USA,TEST1443,1443
1295593,8785 Branch Avenue,CLINTON,MD,20735,USA,TEST1443,1443
1295985,8785 Branch Avenue,CLINTON,MD,20735,USA,TEST1443,1443
1296380,8785 Branch Avenue,CLINTON,MD,20735,USA,TEST1443,1443
1296577,8785 Branch Avenue,CLINTON,MD,20735,USA,TEST1443,1443
1296704,8785 Branch Avenue,CLINTON,MD,20735,USA,TEST1443,1443
1296852,8785 Branch Avenue,CLINTON,MD,20735,USA,TEST1443,1443
1297091,8785 Branch Avenue,CLINTON,MD,20735,USA,TEST1443,1443
1297483,8785 Branch Avenue,CLINTON,MD,20735,USA,TEST1443,1443
1299527,8785 Branch Avenue,CLINTON,MD,20735,USA,TEST1443,1443
1299528,8785 Branch Avenue,CLINTON,MD,20735,USA,TEST1443,1443
1302104,8785 Branch Avenue,CLINTON,MD,20735,USA,TEST1443,1443
1302252,8785 Branch Avenue,CLINTON,MD,20735,USA,TEST1443,1443
1315361,8785 Branch Avenue,CLINTON,MD,20735,USA,TEST1443,1443
1315899,8785 Branch Avenue,CLINTON,MD,20735,USA,TEST1443,1443
1318856,8785 Branch Avenue,CLINTON,MD,20735,USA,TEST1443,1443
1319010,8785 Branch Avenue,CLINTON,MD,20735,USA,TEST1443,1443
1319055,8785 Branch Avenue,CLINTON,MD,20735,USA,TEST1443,1443
1330767,8785 Branch Avenue,CLINTON,MD,20735,USA,TEST1443,1443
1330900,8785 Branch Avenue,CLINTON,MD,20735,USA,TEST1443,1443
1330905,8785 Branch Avenue,CLINTON,MD,20735,USA,TEST1443,1443
1331147,8785 Branch Avenue,CLINTON,MD,20735,USA,TEST1443,1443
1331199,8785 Branch Avenue,CLINTON,MD,20735,USA,TEST1443,1443
1333069,8785 Branch Avenue,CLINTON,MD,20735,USA,TEST1443,1443
1333599,8785 Branch Avenue,CLINTON,MD,20735,USA,TEST1443,1443
1333676,8785 Branch Avenue,CLINTON,MD,20735,USA,TEST1443,1443
1333837,8785 Branch Avenue,CLINTON,MD,20735,USA,TEST1443,1443
1333838,8785 Branch Avenue,CLINTON,MD,20735,USA,TEST1443,1443
1333992,8785 Branch Avenue,CLINTON,MD,20735,USA,TEST1443,1443
1334259,8785 Branch Avenue,CLINTON,MD,20735,USA,TEST1443,1443
1334774,8785 Branch Avenue,CLINTON,MD,20735,USA,TEST1443,1443
1335173,8785 Branch Avenue,CLINTON,MD,20735,USA,TEST1443,1443
1335302,8785 Branch Avenue,CLINTON,MD,20735,USA,TEST1443,1443
1335658,8785 Branch Avenue,CLINTON,MD,20735,USA,TEST1443,1443
1336209,8785 Branch Avenue,CLINTON,MD,20735,USA,TEST1443,1443
1336275,8785 Branch Avenue,CLINTON,MD,20735,USA,TEST1443,1443
1336439,8785 Branch Avenue,CLINTON,MD,20735,USA,TEST1443,1443
1336469,8785 Branch Avenue,CLINTON,MD,20735,USA,TEST1443,1443
1336669,8785 Branch Avenue,CLINTON,MD,20735,USA,TEST1443,1443
1336727,8785 Branch Avenue,CLINTON,MD,20735,USA,TEST1443,1443
1336792,8785 Branch Avenue,CLINTON,MD,20735,USA,TEST1443,1443
1336794,8785 Branch Avenue,CLINTON,MD,20735,USA,TEST1443,1443
1336983,8785 Branch Avenue,CLINTON,MD,20735,USA,TEST1443,1443
1337064,8785 Branch Avenue,CLINTON,MD,20735,USA,TEST1443,1443
1337304,8785 Branch Avenue,CLINTON,MD,20735,USA,TEST1443,1443
1337309,8785 Branch Avenue,CLINTON,MD,20735,USA,TEST1443,1443
1337475,8785 Branch Avenue,CLINTON,MD,20735,USA,TEST1443,1443
1345369,8785 Branch Avenue,CLINTON,MD,20735,USA,TEST1443,1443
1345650,8785 Branch Avenue,CLINTON,MD,20735,USA,TEST1443,1443
1345676,8785 Branch Avenue,CLINTON,MD,20735,USA,TEST1443,1443
1356503,8785 Branch Avenue,CLINTON,MD,20735,USA,TEST1443,1443
1356806,8785 Branch Avenue,CLINTON,MD,20735,USA,TEST1443,1443
1357043,8785 Branch Avenue,CLINTON,MD,20735,USA,TEST1443,1443
1365912,8785 Branch Avenue,CLINTON,MD,20735,USA,TEST1443,1443
1365974,8785 Branch Avenue,CLINTON,MD,20735,USA,TEST1443,1443
1366146,8785 Branch Avenue,CLINTON,MD,20735,USA,TEST1443,1443
1366180,8785 Branch Avenue,CLINTON,MD,20735,USA,TEST1443,1443
1366339,8785 Branch Avenue,CLINTON,MD,20735,USA,TEST1443,1443
1366892,8785 Branch Avenue,CLINTON,MD,20735,USA,TEST1443,1443
1367102,8785 Branch Avenue,CLINTON,MD,20735,USA,TEST1443,1443
1367994,8785 Branch Avenue,CLINTON,MD,20735,USA,TEST1443,1443
1368447,8785 Branch Avenue,CLINTON,MD,20735,USA,TEST1443,1443
1368690,8785 Branch Avenue,CLINTON,MD,20735,USA,TEST1443,1443
1368883,8785 Branch Avenue,CLINTON,MD,20735,USA,TEST1443,1443
1370237,8785 Branch Avenue,CLINTON,MD,20735,USA,TEST1443,1443
1370394,8785 Branch Avenue,CLINTON,MD,20735,USA,TEST1443,1443
1370791,8785 Branch Avenue,CLINTON,MD,20735,USA,TEST1443,1443
1370889,8785 Branch Avenue,CLINTON,MD,20735,USA,TEST1443,1443
1371091,8785 Branch Avenue,CLINTON,MD,20735,USA,TEST1443,1443
1371447,8785 Branch Avenue,CLINTON,MD,20735,USA,TEST1443,1443
1371524,8785 Branch Avenue,CLINTON,MD,20735,USA,TEST1443,1443
1371570,8785 Branch Avenue,CLINTON,MD,20735,USA,TEST1443,1443
1371759,8785 Branch Avenue,CLINTON,MD,20735,USA,TEST1443,1443
1253389,8785 Branch Avenue,CLINTON,MD,20735,USA,TEST1443,1443
1253642,8785 Branch Avenue,CLINTON,MD,20735,USA,TEST1443,1443
1253678,8785 Branch Avenue,CLINTON,MD,20735,USA,TEST1443,1443
1254176,8785 Branch Avenue,CLINTON,MD,20735,USA,TEST1443,1443
1255651,8785 Branch Avenue,CLINTON,MD,20735,USA,TEST1443,1443
1255879,8785 Branch Avenue,CLINTON,MD,20735,USA,TEST1443,1443
1256371,8785 Branch Avenue,CLINTON,MD,20735,USA,TEST1443,1443
1256415,8785 Branch Avenue,CLINTON,MD,20735,USA,TEST1443,1443
1256431,8785 Branch Avenue,CLINTON,MD,20735,USA,TEST1443,1443
1257234,8785 Branch Avenue,CLINTON,MD,20735,USA,TEST1443,1443
1257235,8785 Branch Avenue,CLINTON,MD,20735,USA,TEST1443,1443
1257276,8785 Branch Avenue,CLINTON,MD,20735,USA,TEST1443,1443
1257289,8785 Branch Avenue,CLINTON,MD,20735,USA,TEST1443,1443
1257606,8785 Branch Avenue,CLINTON,MD,20735,USA,TEST1443,1443
1258098,8785 Branch Avenue,CLINTON,MD,20735,USA,TEST1443,1443
1258342,8785 Branch Avenue,CLINTON,MD,20735,USA,TEST1443,1443
1259870,8785 Branch Avenue,CLINTON,MD,20735,USA,TEST1443,1443
1260171,8785 Branch Avenue,CLINTON,MD,20735,USA,TEST1443,1443
1260413,8785 Branch Avenue,CLINTON,MD,20735,USA,TEST1443,1443
1285296,8785 Branch Avenue,CLINTON,MD,20735,USA,TEST1443,1443
1285508,8785 Branch Avenue,CLINTON,MD,20735,USA,TEST1443,1443
1285772,8785 Branch Avenue,CLINTON,MD,20735,USA,TEST1443,1443
1285785,8785 Branch Avenue,CLINTON,MD,20735,USA,TEST1443,1443
1285825,8785 Branch Avenue,CLINTON,MD,20735,USA,TEST1443,1443
1285864,8785 Branch Avenue,CLINTON,MD,20735,USA,TEST1443,1443
1285924,8785 Branch Avenue,CLINTON,MD,20735,USA,TEST1443,1443
1286038,8785 Branch Avenue,CLINTON,MD,20735,USA,TEST1443,1443
1286078,8785 Branch Avenue,CLINTON,MD,20735,USA,TEST1443,1443
1286104,8785 Branch Avenue,CLINTON,MD,20735,USA,TEST1443,1443
1286345,8785 Branch Avenue,CLINTON,MD,20735,USA,TEST1443,1443
1286427,8785 Branch Avenue,CLINTON,MD,20735,USA,TEST1443,1443
1286700,8785 Branch Avenue,CLINTON,MD,20735,USA,TEST1443,1443
1286785,8785 Branch Avenue,CLINTON,MD,20735,USA,TEST1443,1443
1287641,8785 Branch Avenue,CLINTON,MD,20735,USA,TEST1443,1443
1287662,8785 Branch Avenue,CLINTON,MD,20735,USA,TEST1443,1443
1287753,8785 Branch Avenue,CLINTON,MD,20735,USA,TEST1443,1443
1288148,8785 Branch Avenue,CLINTON,MD,20735,USA,TEST1443,1443
1288219,8785 Branch Avenue,CLINTON,MD,20735,USA,TEST1443,1443
1288292,8785 Branch Avenue,CLINTON,MD,20735,USA,TEST1443,1443
1288294,8785 Branch Avenue,CLINTON,MD,20735,USA,TEST1443,1443
1288344,8785 Branch Avenue,CLINTON,MD,20735,USA,TEST1443,1443
1290202,8785 Branch Avenue,CLINTON,MD,20735,USA,TEST1443,1443
1290279,8785 Branch Avenue,CLINTON,MD,20735,USA,TEST1443,1443
1290388,8785 Branch Avenue,CLINTON,MD,20735,USA,TEST1443,1443
1290549,8785 Branch Avenue,CLINTON,MD,20735,USA,TEST1443,1443
1290636,8785 Branch Avenue,CLINTON,MD,20735,USA,TEST1443,1443
1291048,8785 Branch Avenue,CLINTON,MD,20735,USA,TEST1443,1443
1291079,8785 Branch Avenue,CLINTON,MD,20735,USA,TEST1443,1443
1291240,8785 Branch Avenue,CLINTON,MD,20735,USA,TEST1443,1443
1291336,8785 Branch Avenue,CLINTON,MD,20735,USA,TEST1443,1443
1308000,8785 Branch Avenue,CLINTON,MD,20735,USA,TEST1443,1443
1308403,8785 Branch Avenue,CLINTON,MD,20735,USA,TEST1443,1443
1308693,8785 Branch Avenue,CLINTON,MD,20735,USA,TEST1443,1443
1325556,8785 Branch Avenue,CLINTON,MD,20735,USA,TEST1443,1443
1327820,8785 Branch Avenue,CLINTON,MD,20735,USA,TEST1443,1443
1327993,8785 Branch Avenue,CLINTON,MD,20735,USA,TEST1443,1443
1328396,8785 Branch Avenue,CLINTON,MD,20735,USA,TEST1443,1443
1328596,8785 Branch Avenue,CLINTON,MD,20735,USA,TEST1443,1443
1328843,8785 Branch Avenue,CLINTON,MD,20735,USA,TEST1443,1443
1329073,8785 Branch Avenue,CLINTON,MD,20735,USA,TEST1443,1443
1329190,8785 Branch Avenue,CLINTON,MD,20735,USA,TEST1443,1443
1330452,8785 Branch Avenue,CLINTON,MD,20735,USA,TEST1443,1443
1330614,8785 Branch Avenue,CLINTON,MD,20735,USA,TEST1443,1443
1331226,8785 Branch Avenue,CLINTON,MD,20735,USA,TEST1443,1443
1330711,8785 Branch Avenue,CLINTON,MD,20735,USA,TEST1443,1443
1331712,8785 Branch Avenue,CLINTON,MD,20735,USA,TEST1443,1443
1331741,8785 Branch Avenue,CLINTON,MD,20735,USA,TEST1443,1443
1332309,8785 Branch Avenue,CLINTON,MD,20735,USA,TEST1443,1443
1330979,8785 Branch Avenue,CLINTON,MD,20735,USA,TEST1443,1443
1332778,8785 Branch Avenue,CLINTON,MD,20735,USA,TEST1443,1443
1332880,8785 Branch Avenue,CLINTON,MD,20735,USA,TEST1443,1443
1360148,8785 Branch Avenue,CLINTON,MD,20735,USA,TEST1443,1443
1360242,8785 Branch Avenue,CLINTON,MD,20735,USA,TEST1443,1443
1360628,8785 Branch Avenue,CLINTON,MD,20735,USA,TEST1443,1443
1360740,8785 Branch Avenue,CLINTON,MD,20735,USA,TEST1443,1443
1362065,8785 Branch Avenue,CLINTON,MD,20735,USA,TEST1443,1443
1362499,8785 Branch Avenue,CLINTON,MD,20735,USA,TEST1443,1443
1362500,8785 Branch Avenue,CLINTON,MD,20735,USA,TEST1443,1443
1364558,8785 Branch Avenue,CLINTON,MD,20735,USA,TEST1443,1443
1364622,8785 Branch Avenue,CLINTON,MD,20735,USA,TEST1443,1443
1364691,8785 Branch Avenue,CLINTON,MD,20735,USA,TEST1443,1443
1364692,8785 Branch Avenue,CLINTON,MD,20735,USA,TEST1443,1443
1364961,8785 Branch Avenue,CLINTON,MD,20735,USA,TEST1443,1443
1364999,8785 Branch Avenue,CLINTON,MD,20735,USA,TEST1443,1443
1365237,8785 Branch Avenue,CLINTON,MD,20735,USA,TEST1443,1443
1365498,8785 Branch Avenue,CLINTON,MD,20735,USA,TEST1443,1443
1365548,8785 Branch Avenue,CLINTON,MD,20735,USA,TEST1443,1443
1240158,8785 Branch Avenue,CLINTON,MD,20735,USA,TEST1443,1443
1240162,8785 Branch Avenue,CLINTON,MD,20735,USA,TEST1443,1443
1242992,8785 Branch Avenue,CLINTON,MD,20735,USA,TEST1443,1443
1243042,8785 Branch Avenue,CLINTON,MD,20735,USA,TEST1443,1443
1244921,8785 Branch Avenue,CLINTON,MD,20735,USA,TEST1443,1443
1244940,8785 Branch Avenue,CLINTON,MD,20735,USA,TEST1443,1443
1245080,8785 Branch Avenue,CLINTON,MD,20735,USA,TEST1443,1443
1245203,8785 Branch Avenue,CLINTON,MD,20735,USA,TEST1443,1443
1245908,8785 Branch Avenue,CLINTON,MD,20735,USA,TEST1443,1443
1246084,8785 Branch Avenue,CLINTON,MD,20735,USA,TEST1443,1443
1246365,8785 Branch Avenue,CLINTON,MD,20735,USA,TEST1443,1443
1246366,8785 Branch Avenue,CLINTON,MD,20735,USA,TEST1443,1443
1247067,8785 Branch Avenue,CLINTON,MD,20735,USA,TEST1443,1443
1247213,8785 Branch Avenue,CLINTON,MD,20735,USA,TEST1443,1443
1247580,8785 Branch Avenue,CLINTON,MD,20735,USA,TEST1443,1443
1247907,8785 Branch Avenue,CLINTON,MD,20735,USA,TEST1443,1443
1248250,8785 Branch Avenue,CLINTON,MD,20735,USA,TEST1443,1443
1248354,8785 Branch Avenue,CLINTON,MD,20735,USA,TEST1443,1443
1248360,8785 Branch Avenue,CLINTON,MD,20735,USA,TEST1443,1443
1248404,8785 Branch Avenue,CLINTON,MD,20735,USA,TEST1443,1443
1248547,8785 Branch Avenue,CLINTON,MD,20735,USA,TEST1443,1443
1248601,8785 Branch Avenue,CLINTON,MD,20735,USA,TEST1443,1443
1248845,8785 Branch Avenue,CLINTON,MD,20735,USA,TEST1443,1443
1249894,8785 Branch Avenue,CLINTON,MD,20735,USA,TEST1443,1443
1250617,8785 Branch Avenue,CLINTON,MD,20735,USA,TEST1443,1443
1251058,8785 Branch Avenue,CLINTON,MD,20735,USA,TEST1443,1443
1251244,8785 Branch Avenue,CLINTON,MD,20735,USA,TEST1443,1443
1251283,8785 Branch Avenue,CLINTON,MD,20735,USA,TEST1443,1443
1251453,8785 Branch Avenue,CLINTON,MD,20735,USA,TEST1443,1443
1251477,8785 Branch Avenue,CLINTON,MD,20735,USA,TEST1443,1443
1252462,8785 Branch Avenue,CLINTON,MD,20735,USA,TEST1443,1443
1252855,8785 Branch Avenue,CLINTON,MD,20735,USA,TEST1443,1443
1254835,8785 Branch Avenue,CLINTON,MD,20735,USA,TEST1443,1443
1254854,8785 Branch Avenue,CLINTON,MD,20735,USA,TEST1443,1443
1262077,8785 Branch Avenue,CLINTON,MD,20735,USA,TEST1443,1443
1280074,8785 Branch Avenue,CLINTON,MD,20735,USA,TEST1443,1443
1280208,8785 Branch Avenue,CLINTON,MD,20735,USA,TEST1443,1443
1280256,8785 Branch Avenue,CLINTON,MD,20735,USA,TEST1443,1443
1280283,8785 Branch Avenue,CLINTON,MD,20735,USA,TEST1443,1443
1280799,8785 Branch Avenue,CLINTON,MD,20735,USA,TEST1443,1443
1281996,8785 Branch Avenue,CLINTON,MD,20735,USA,TEST1443,1443
1283648,8785 Branch Avenue,CLINTON,MD,20735,USA,TEST1443,1443
1283707,8785 Branch Avenue,CLINTON,MD,20735,USA,TEST1443,1443
1283871,8785 Branch Avenue,CLINTON,MD,20735,USA,TEST1443,1443
1283924,8785 Branch Avenue,CLINTON,MD,20735,USA,TEST1443,1443
1284204,8785 Branch Avenue,CLINTON,MD,20735,USA,TEST1443,1443
1284220,8785 Branch Avenue,CLINTON,MD,20735,USA,TEST1443,1443
1284250,8785 Branch Avenue,CLINTON,MD,20735,USA,TEST1443,1443
1284287,8785 Branch Avenue,CLINTON,MD,20735,USA,TEST1443,1443
1284334,8785 Branch Avenue,CLINTON,MD,20735,USA,TEST1443,1443
1284356,8785 Branch Avenue,CLINTON,MD,20735,USA,TEST1443,1443
1284374,8785 Branch Avenue,CLINTON,MD,20735,USA,TEST1443,1443
1284656,8785 Branch Avenue,CLINTON,MD,20735,USA,TEST1443,1443
1288841,8785 Branch Avenue,CLINTON,MD,20735,USA,TEST1443,1443
1288925,8785 Branch Avenue,CLINTON,MD,20735,USA,TEST1443,1443
1316370,8785 Branch Avenue,CLINTON,MD,20735,USA,TEST1443,1443
1317838,8785 Branch Avenue,CLINTON,MD,20735,USA,TEST1443,1443
1322346,8785 Branch Avenue,CLINTON,MD,20735,USA,TEST1443,1443
1322357,8785 Branch Avenue,CLINTON,MD,20735,USA,TEST1443,1443
1322941,8785 Branch Avenue,CLINTON,MD,20735,USA,TEST1443,1443
1323747,8785 Branch Avenue,CLINTON,MD,20735,USA,TEST1443,1443
1323871,8785 Branch Avenue,CLINTON,MD,20735,USA,TEST1443,1443
1323881,8785 Branch Avenue,CLINTON,MD,20735,USA,TEST1443,1443
1324192,8785 Branch Avenue,CLINTON,MD,20735,USA,TEST1443,1443
1344032,8785 Branch Avenue,CLINTON,MD,20735,USA,TEST1443,1443
1375205,8785 Branch Avenue,CLINTON,MD,20735,USA,TEST1443,1443
1375547,8785 Branch Avenue,CLINTON,MD,20735,USA,TEST1443,1443
1375679,8785 Branch Avenue,CLINTON,MD,20735,USA,TEST1443,1443
1375794,8785 Branch Avenue,CLINTON,MD,20735,USA,TEST1443,1443
1324639,8785 Branch Avenue,CLINTON,MD,20735,USA,TEST1443,1443
1324640,8785 Branch Avenue,CLINTON,MD,20735,USA,TEST1443,1443
1324715,8785 Branch Avenue,CLINTON,MD,20735,USA,TEST1443,1443
1324883,8785 Branch Avenue,CLINTON,MD,20735,USA,TEST1443,1443
1325204,8785 Branch Avenue,CLINTON,MD,20735,USA,TEST1443,1443
1326142,8785 Branch Avenue,CLINTON,MD,20735,USA,TEST1443,1443
1326193,8785 Branch Avenue,CLINTON,MD,20735,USA,TEST1443,1443
1326339,8785 Branch Avenue,CLINTON,MD,20735,USA,TEST1443,1443
1326490,8785 Branch Avenue,CLINTON,MD,20735,USA,TEST1443,1443
1372295,8785 Branch Avenue,CLINTON,MD,20735,USA,TEST1443,1443
1372632,8785 Branch Avenue,CLINTON,MD,20735,USA,TEST1443,1443
1373394,8785 Branch Avenue,CLINTON,MD,20735,USA,TEST1443,1443
1373532,8785 Branch Avenue,CLINTON,MD,20735,USA,TEST1443,1443
1374114,8785 Branch Avenue,CLINTON,MD,20735,USA,TEST1443,1443
1374867,8785 Branch Avenue,CLINTON,MD,20735,USA,TEST1443,1443
1374953,8785 Branch Avenue,CLINTON,MD,20735,USA,TEST1443,1443
1375008,8785 Branch Avenue,CLINTON,MD,20735,USA,TEST1443,1443
1376541,8785 Branch Avenue,CLINTON,MD,20735,USA,TEST1443,1443
1376781,8785 Branch Avenue,CLINTON,MD,20735,USA,TEST1443,1443
1376886,8785 Branch Avenue,CLINTON,MD,20735,USA,TEST1443,1443
1376895,8785 Branch Avenue,CLINTON,MD,20735,USA,TEST1443,1443
1377159,8785 Branch Avenue,CLINTON,MD,20735,USA,TEST1443,1443
1377458,8785 Branch Avenue,CLINTON,MD,20735,USA,TEST1443,1443
1377486,8785 Branch Avenue,CLINTON,MD,20735,USA,TEST1443,1443
1377514,8785 Branch Avenue,CLINTON,MD,20735,USA,TEST1443,1443
1377518,8785 Branch Avenue,CLINTON,MD,20735,USA,TEST1443,1443
1377743,8785 Branch Avenue,CLINTON,MD,20735,USA,TEST1443,1443
1377792,8785 Branch Avenue,CLINTON,MD,20735,USA,TEST1443,1443
1378034,8785 Branch Avenue,CLINTON,MD,20735,USA,TEST1443,1443
1378248,8785 Branch Avenue,CLINTON,MD,20735,USA,TEST1443,1443
1378316,8785 Branch Avenue,CLINTON,MD,20735,USA,TEST1443,1443
1378345,8785 Branch Avenue,CLINTON,MD,20735,USA,TEST1443,1443
1379091,8785 Branch Avenue,CLINTON,MD,20735,USA,TEST1443,1443
1379193,8785 Branch Avenue,CLINTON,MD,20735,USA,TEST1443,1443
1379549,8785 Branch Avenue,CLINTON,MD,20735,USA,TEST1443,1443
1379917,8785 Branch Avenue,CLINTON,MD,20735,USA,TEST1443,1443
1380305,8785 Branch Avenue,CLINTON,MD,20735,USA,TEST1443,1443
1380720,8785 Branch Avenue,CLINTON,MD,20735,USA,TEST1443,1443
1380934,8785 Branch Avenue,CLINTON,MD,20735,USA,TEST1443,1443
1381370,8785 Branch Avenue,CLINTON,MD,20735,USA,TEST1443,1443
1381371,8785 Branch Avenue,CLINTON,MD,20735,USA,TEST1443,1443
1382365,8785 Branch Avenue,CLINTON,MD,20735,USA,TEST1443,1443
1382484,8785 Branch Avenue,CLINTON,MD,20735,USA,TEST1443,1443
1382546,8785 Branch Avenue,CLINTON,MD,20735,USA,TEST1443,1443
1382603,8785 Branch Avenue,CLINTON,MD,20735,USA,TEST1443,1443
1382696,8785 Branch Avenue,CLINTON,MD,20735,USA,TEST1443,1443
1382919,8785 Branch Avenue,CLINTON,MD,20735,USA,TEST1443,1443
1383126,8785 Branch Avenue,CLINTON,MD,20735,USA,TEST1443,1443
1383357,8785 Branch Avenue,CLINTON,MD,20735,USA,TEST1443,1443
1383542,8785 Branch Avenue,CLINTON,MD,20735,USA,TEST1443,1443
1383727,8785 Branch Avenue,CLINTON,MD,20735,USA,TEST1443,1443
1383872,8785 Branch Avenue,CLINTON,MD,20735,USA,TEST1443,1443
1384007,8785 Branch Avenue,CLINTON,MD,20735,USA,TEST1443,1443
1384109,8785 Branch Avenue,CLINTON,MD,20735,USA,TEST1443,1443
1384424,8785 Branch Avenue,CLINTON,MD,20735,USA,TEST1443,1443
1384482,8785 Branch Avenue,CLINTON,MD,20735,USA,TEST1443,1443
1384553,8785 Branch Avenue,CLINTON,MD,20735,USA,TEST1443,1443
1384666,8785 Branch Avenue,CLINTON,MD,20735,USA,TEST1443,1443
1384997,8785 Branch Avenue,CLINTON,MD,20735,USA,TEST1443,1443
1385533,8785 Branch Avenue,CLINTON,MD,20735,USA,TEST1443,1443
1386642,8785 Branch Avenue,CLINTON,MD,20735,USA,TEST1443,1443
1386689,8785 Branch Avenue,CLINTON,MD,20735,USA,TEST1443,1443
1386700,8785 Branch Avenue,CLINTON,MD,20735,USA,TEST1443,1443
1386946,8785 Branch Avenue,CLINTON,MD,20735,USA,TEST1443,1443
1387237,8785 Branch Avenue,CLINTON,MD,20735,USA,TEST1443,1443
1177400,8785 Branch Avenue,CLINTON,MD,20735,USA,TEST1443,1443
1236467,8785 Branch Avenue,CLINTON,MD,20735,USA,TEST1443,1443
1236673,8785 Branch Avenue,CLINTON,MD,20735,USA,TEST1443,1443
1268260,8785 Branch Avenue,CLINTON,MD,20735,USA,TEST1443,1443
1268599,8785 Branch Avenue,CLINTON,MD,20735,USA,TEST1443,1443
1268683,8785 Branch Avenue,CLINTON,MD,20735,USA,TEST1443,1443
1268832,8785 Branch Avenue,CLINTON,MD,20735,USA,TEST1443,1443
1269338,8785 Branch Avenue,CLINTON,MD,20735,USA,TEST1443,1443
1269429,8785 Branch Avenue,CLINTON,MD,20735,USA,TEST1443,1443
1269448,8785 Branch Avenue,CLINTON,MD,20735,USA,TEST1443,1443
1269810,8785 Branch Avenue,CLINTON,MD,20735,USA,TEST1443,1443
1269854,8785 Branch Avenue,CLINTON,MD,20735,USA,TEST1443,1443
1269956,8785 Branch Avenue,CLINTON,MD,20735,USA,TEST1443,1443
1270280,8785 Branch Avenue,CLINTON,MD,20735,USA,TEST1443,1443
1271378,8785 Branch Avenue,CLINTON,MD,20735,USA,TEST1443,1443
1272139,8785 Branch Avenue,CLINTON,MD,20735,USA,TEST1443,1443
1272187,8785 Branch Avenue,CLINTON,MD,20735,USA,TEST1443,1443
1272359,8785 Branch Avenue,CLINTON,MD,20735,USA,TEST1443,1443
1272857,8785 Branch Avenue,CLINTON,MD,20735,USA,TEST1443,1443
1272859,8785 Branch Avenue,CLINTON,MD,20735,USA,TEST1443,1443
1273659,8785 Branch Avenue,CLINTON,MD,20735,USA,TEST1443,1443
1306204,8785 Branch Avenue,CLINTON,MD,20735,USA,TEST1443,1443
1306240,8785 Branch Avenue,CLINTON,MD,20735,USA,TEST1443,1443
1306265,8785 Branch Avenue,CLINTON,MD,20735,USA,TEST1443,1443
1306888,8785 Branch Avenue,CLINTON,MD,20735,USA,TEST1443,1443
1306890,8785 Branch Avenue,CLINTON,MD,20735,USA,TEST1443,1443
1310224,8785 Branch Avenue,CLINTON,MD,20735,USA,TEST1443,1443
1310671,8785 Branch Avenue,CLINTON,MD,20735,USA,TEST1443,1443
1310690,8785 Branch Avenue,CLINTON,MD,20735,USA,TEST1443,1443
1311971,8785 Branch Avenue,CLINTON,MD,20735,USA,TEST1443,1443
1312037,8785 Branch Avenue,CLINTON,MD,20735,USA,TEST1443,1443
1312205,8785 Branch Avenue,CLINTON,MD,20735,USA,TEST1443,1443
1312218,8785 Branch Avenue,CLINTON,MD,20735,USA,TEST1443,1443
1312242,8785 Branch Avenue,CLINTON,MD,20735,USA,TEST1443,1443
1313079,8785 Branch Avenue,CLINTON,MD,20735,USA,TEST1443,1443
1313685,8785 Branch Avenue,CLINTON,MD,20735,USA,TEST1443,1443
1313695,8785 Branch Avenue,CLINTON,MD,20735,USA,TEST1443,1443
1313714,8785 Branch Avenue,CLINTON,MD,20735,USA,TEST1443,1443
1313735,8785 Branch Avenue,CLINTON,MD,20735,USA,TEST1443,1443
1313871,8785 Branch Avenue,CLINTON,MD,20735,USA,TEST1443,1443
1313918,8785 Branch Avenue,CLINTON,MD,20735,USA,TEST1443,1443
1314067,8785 Branch Avenue,CLINTON,MD,20735,USA,TEST1443,1443
1314193,8785 Branch Avenue,CLINTON,MD,20735,USA,TEST1443,1443
1317091,8785 Branch Avenue,CLINTON,MD,20735,USA,TEST1443,1443
1317121,8785 Branch Avenue,CLINTON,MD,20735,USA,TEST1443,1443
1317322,8785 Branch Avenue,CLINTON,MD,20735,USA,TEST1443,1443
1317483,8785 Branch Avenue,CLINTON,MD,20735,USA,TEST1443,1443
1317590,8785 Branch Avenue,CLINTON,MD,20735,USA,TEST1443,1443
1239053,8785 Branch Avenue,CLINTON,MD,20735,USA,TEST1443,1443
1239195,8785 Branch Avenue,CLINTON,MD,20735,USA,TEST1443,1443
1239258,8785 Branch Avenue,CLINTON,MD,20735,USA,TEST1443,1443
1239351,8785 Branch Avenue,CLINTON,MD,20735,USA,TEST1443,1443
1239522,8785 Branch Avenue,CLINTON,MD,20735,USA,TEST1443,1443
1239529,8785 Branch Avenue,CLINTON,MD,20735,USA,TEST1443,1443
1240287,8785 Branch Avenue,CLINTON,MD,20735,USA,TEST1443,1443
1240515,8785 Branch Avenue,CLINTON,MD,20735,USA,TEST1443,1443
1240630,8785 Branch Avenue,CLINTON,MD,20735,USA,TEST1443,1443
1241722,8785 Branch Avenue,CLINTON,MD,20735,USA,TEST1443,1443
1241823,8785 Branch Avenue,CLINTON,MD,20735,USA,TEST1443,1443
1242143,8785 Branch Avenue,CLINTON,MD,20735,USA,TEST1443,1443
1242212,8785 Branch Avenue,CLINTON,MD,20735,USA,TEST1443,1443
1242553,8785 Branch Avenue,CLINTON,MD,20735,USA,TEST1443,1443
1242574,8785 Branch Avenue,CLINTON,MD,20735,USA,TEST1443,1443
1242710,8785 Branch Avenue,CLINTON,MD,20735,USA,TEST1443,1443
1243551,8785 Branch Avenue,CLINTON,MD,20735,USA,TEST1443,1443
1244139,8785 Branch Avenue,CLINTON,MD,20735,USA,TEST1443,1443
1266192,8785 Branch Avenue,CLINTON,MD,20735,USA,TEST1443,1443
1266255,8785 Branch Avenue,CLINTON,MD,20735,USA,TEST1443,1443
1282349,8785 Branch Avenue,CLINTON,MD,20735,USA,TEST1443,1443
1283294,8785 Branch Avenue,CLINTON,MD,20735,USA,TEST1443,1443
1297797,8785 Branch Avenue,CLINTON,MD,20735,USA,TEST1443,1443
1297919,8785 Branch Avenue,CLINTON,MD,20735,USA,TEST1443,1443
1298397,8785 Branch Avenue,CLINTON,MD,20735,USA,TEST1443,1443
1298471,8785 Branch Avenue,CLINTON,MD,20735,USA,TEST1443,1443
1299024,8785 Branch Avenue,CLINTON,MD,20735,USA,TEST1443,1443
1299330,8785 Branch Avenue,CLINTON,MD,20735,USA,TEST1443,1443
1299395,8785 Branch Avenue,CLINTON,MD,20735,USA,TEST1443,1443
1300259,8785 Branch Avenue,CLINTON,MD,20735,USA,TEST1443,1443
1300292,8785 Branch Avenue,CLINTON,MD,20735,USA,TEST1443,1443
1300466,8785 Branch Avenue,CLINTON,MD,20735,USA,TEST1443,1443
1300860,8785 Branch Avenue,CLINTON,MD,20735,USA,TEST1443,1443
1301161,8785 Branch Avenue,CLINTON,MD,20735,USA,TEST1443,1443
1301464,8785 Branch Avenue,CLINTON,MD,20735,USA,TEST1443,1443
1302827,8785 Branch Avenue,CLINTON,MD,20735,USA,TEST1443,1443
1303185,8785 Branch Avenue,CLINTON,MD,20735,USA,TEST1443,1443
1320508,8785 Branch Avenue,CLINTON,MD,20735,USA,TEST1443,1443
1320935,8785 Branch Avenue,CLINTON,MD,20735,USA,TEST1443,1443
1321035,8785 Branch Avenue,CLINTON,MD,20735,USA,TEST1443,1443
1321296,8785 Branch Avenue,CLINTON,MD,20735,USA,TEST1443,1443
1337841,8785 Branch Avenue,CLINTON,MD,20735,USA,TEST1443,1443
1338315,8785 Branch Avenue,CLINTON,MD,20735,USA,TEST1443,1443
1338559,8785 Branch Avenue,CLINTON,MD,20735,USA,TEST1443,1443
1338718,8785 Branch Avenue,CLINTON,MD,20735,USA,TEST1443,1443
1338907,8785 Branch Avenue,CLINTON,MD,20735,USA,TEST1443,1443
1339027,8785 Branch Avenue,CLINTON,MD,20735,USA,TEST1443,1443
1339204,8785 Branch Avenue,CLINTON,MD,20735,USA,TEST1443,1443
1339746,8785 Branch Avenue,CLINTON,MD,20735,USA,TEST1443,1443
1340101,8785 Branch Avenue,CLINTON,MD,20735,USA,TEST1443,1443
1340651,8785 Branch Avenue,CLINTON,MD,20735,USA,TEST1443,1443
1341431,8785 Branch Avenue,CLINTON,MD,20735,USA,TEST1443,1443
1342077,8785 Branch Avenue,CLINTON,MD,20735,USA,TEST1443,1443
1342245,8785 Branch Avenue,CLINTON,MD,20735,USA,TEST1443,1443
1342388,8785 Branch Avenue,CLINTON,MD,20735,USA,TEST1443,1443
1342752,8785 Branch Avenue,CLINTON,MD,20735,USA,TEST1443,1443
1342951,8785 Branch Avenue,CLINTON,MD,20735,USA,TEST1443,1443
1355327,8785 Branch Avenue,CLINTON,MD,20735,USA,TEST1443,1443
1355331,8785 Branch Avenue,CLINTON,MD,20735,USA,TEST1443,1443
1355437,8785 Branch Avenue,CLINTON,MD,20735,USA,TEST1443,1443
1355468,8785 Branch Avenue,CLINTON,MD,20735,USA,TEST1443,1443
1356102,8785 Branch Avenue,CLINTON,MD,20735,USA,TEST1443,1443
1357371,8785 Branch Avenue,CLINTON,MD,20735,USA,TEST1443,1443
1357385,8785 Branch Avenue,CLINTON,MD,20735,USA,TEST1443,1443
1357446,8785 Branch Avenue,CLINTON,MD,20735,USA,TEST1443,1443
1357527,8785 Branch Avenue,CLINTON,MD,20735,USA,TEST1443,1443
1357863,8785 Branch Avenue,CLINTON,MD,20735,USA,TEST1443,1443
1358292,8785 Branch Avenue,CLINTON,MD,20735,USA,TEST1443,1443
1362717,8785 Branch Avenue,CLINTON,MD,20735,USA,TEST1443,1443
1363009,8785 Branch Avenue,CLINTON,MD,20735,USA,TEST1443,1443
1369140,8785 Branch Avenue,CLINTON,MD,20735,USA,TEST1443,1443
1369381,8785 Branch Avenue,CLINTON,MD,20735,USA,TEST1443,1443
1369486,8785 Branch Avenue,CLINTON,MD,20735,USA,TEST1443,1443
1369590,8785 Branch Avenue,CLINTON,MD,20735,USA,TEST1443,1443
1369610,8785 Branch Avenue,CLINTON,MD,20735,USA,TEST1443,1443
1369846,8785 Branch Avenue,CLINTON,MD,20735,USA,TEST1443,1443
1370018,8785 Branch Avenue,CLINTON,MD,20735,USA,TEST1443,1443
1370153,8785 Branch Avenue,CLINTON,MD,20735,USA,TEST1443,1443
1385696,8785 Branch Avenue,CLINTON,MD,20735,USA,TEST1443,1443
1386353,8785 Branch Avenue,CLINTON,MD,20735,USA,TEST1443,1443
1387491,8785 Branch Avenue,CLINTON,MD,20735,USA,TEST1443,1443
1388214,8785 Branch Avenue,CLINTON,MD,20735,USA,TEST1443,1443
1388227,8785 Branch Avenue,CLINTON,MD,20735,USA,TEST1443,1443
1388542,8785 Branch Avenue,CLINTON,MD,20735,USA,TEST1443,1443
1388642,8785 Branch Avenue,CLINTON,MD,20735,USA,TEST1443,1443
1389126,8785 Branch Avenue,CLINTON,MD,20735,USA,TEST1443,1443
1392936,8785 Branch Avenue,CLINTON,MD,20735,USA,TEST1443,1443
1393179,8785 Branch Avenue,CLINTON,MD,20735,USA,TEST1443,1443
1393389,8785 Branch Avenue,CLINTON,MD,20735,USA,TEST1443,1443
1397303,8785 Branch Avenue,CLINTON,MD,20735,USA,TEST1443,1443
1215272,8785 Branch Avenue,CLINTON,MD,20735,USA,TEST1443,1443
1217223,8785 Branch Avenue,CLINTON,MD,20735,USA,TEST1443,1443
1233338,8785 Branch Avenue,CLINTON,MD,20735,USA,TEST1443,1443
1233411,8785 Branch Avenue,CLINTON,MD,20735,USA,TEST1443,1443
1234318,8785 Branch Avenue,CLINTON,MD,20735,USA,TEST1443,1443
1230007,8785 Branch Avenue,CLINTON,MD,20735,USA,TEST1443,1443
1231569,8785 Branch Avenue,CLINTON,MD,20735,USA,TEST1443,1443
1235082,8785 Branch Avenue,CLINTON,MD,20735,USA,TEST1443,1443
1235550,8785 Branch Avenue,CLINTON,MD,20735,USA,TEST1443,1443
1235557,8785 Branch Avenue,CLINTON,MD,20735,USA,TEST1443,1443
1236094,8785 Branch Avenue,CLINTON,MD,20735,USA,TEST1443,1443
1236269,8785 Branch Avenue,CLINTON,MD,20735,USA,TEST1443,1443
1202378,8785 Branch Avenue,CLINTON,MD,20735,USA,TEST1443,1443
1236726,8785 Branch Avenue,CLINTON,MD,20735,USA,TEST1443,1443
1236830,8785 Branch Avenue,CLINTON,MD,20735,USA,TEST1443,1443
1237034,8785 Branch Avenue,CLINTON,MD,20735,USA,TEST1443,1443
1237539,8785 Branch Avenue,CLINTON,MD,20735,USA,TEST1443,1443
1238386,8785 Branch Avenue,CLINTON,MD,20735,USA,TEST1443,1443
1238640,8785 Branch Avenue,CLINTON,MD,20735,USA,TEST1443,1443
1238716,8785 Branch Avenue,CLINTON,MD,20735,USA,TEST1443,1443
1238831,8785 Branch Avenue,CLINTON,MD,20735,USA,TEST1443,1443
1249286,8785 Branch Avenue,CLINTON,MD,20735,USA,TEST1443,1443
1249371,8785 Branch Avenue,CLINTON,MD,20735,USA,TEST1443,1443
1249689,8785 Branch Avenue,CLINTON,MD,20735,USA,TEST1443,1443
1274247,8785 Branch Avenue,CLINTON,MD,20735,USA,TEST1443,1443
1274401,8785 Branch Avenue,CLINTON,MD,20735,USA,TEST1443,1443
1276088,8785 Branch Avenue,CLINTON,MD,20735,USA,TEST1443,1443
1276211,8785 Branch Avenue,CLINTON,MD,20735,USA,TEST1443,1443
1276360,8785 Branch Avenue,CLINTON,MD,20735,USA,TEST1443,1443
1276447,8785 Branch Avenue,CLINTON,MD,20735,USA,TEST1443,1443
1276501,8785 Branch Avenue,CLINTON,MD,20735,USA,TEST1443,1443
1277129,8785 Branch Avenue,CLINTON,MD,20735,USA,TEST1443,1443
1277674,8785 Branch Avenue,CLINTON,MD,20735,USA,TEST1443,1443
1278007,8785 Branch Avenue,CLINTON,MD,20735,USA,TEST1443,1443
1278213,8785 Branch Avenue,CLINTON,MD,20735,USA,TEST1443,1443
1278367,8785 Branch Avenue,CLINTON,MD,20735,USA,TEST1443,1443
1278597,8785 Branch Avenue,CLINTON,MD,20735,USA,TEST1443,1443
1278642,8785 Branch Avenue,CLINTON,MD,20735,USA,TEST1443,1443
1278888,8785 Branch Avenue,CLINTON,MD,20735,USA,TEST1443,1443
1279040,8785 Branch Avenue,CLINTON,MD,20735,USA,TEST1443,1443
1281475,8785 Branch Avenue,CLINTON,MD,20735,USA,TEST1443,1443
1281789,8785 Branch Avenue,CLINTON,MD,20735,USA,TEST1443,1443
1319442,8785 Branch Avenue,CLINTON,MD,20735,USA,TEST1443,1443
1320050,8785 Branch Avenue,CLINTON,MD,20735,USA,TEST1443,1443
1346793,8785 Branch Avenue,CLINTON,MD,20735,USA,TEST1443,1443
1349208,8785 Branch Avenue,CLINTON,MD,20735,USA,TEST1443,1443
1349468,8785 Branch Avenue,CLINTON,MD,20735,USA,TEST1443,1443
1349935,8785 Branch Avenue,CLINTON,MD,20735,USA,TEST1443,1443
1351949,8785 Branch Avenue,CLINTON,MD,20735,USA,TEST1443,1443
1352019,8785 Branch Avenue,CLINTON,MD,20735,USA,TEST1443,1443
1352275,8785 Branch Avenue,CLINTON,MD,20735,USA,TEST1443,1443
1352330,8785 Branch Avenue,CLINTON,MD,20735,USA,TEST1443,1443
1353107,8785 Branch Avenue,CLINTON,MD,20735,USA,TEST1443,1443
1353123,8785 Branch Avenue,CLINTON,MD,20735,USA,TEST1443,1443
1353399,8785 Branch Avenue,CLINTON,MD,20735,USA,TEST1443,1443
1358848,8785 Branch Avenue,CLINTON,MD,20735,USA,TEST1443,1443
1359150,8785 Branch Avenue,CLINTON,MD,20735,USA,TEST1443,1443
1359175,8785 Branch Avenue,CLINTON,MD,20735,USA,TEST1443,1443
1359240,8785 Branch Avenue,CLINTON,MD,20735,USA,TEST1443,1443
1359288,8785 Branch Avenue,CLINTON,MD,20735,USA,TEST1443,1443
1359578,8785 Branch Avenue,CLINTON,MD,20735,USA,TEST1443,1443
1360968,8785 Branch Avenue,CLINTON,MD,20735,USA,TEST1443,1443
1361219,8785 Branch Avenue,CLINTON,MD,20735,USA,TEST1443,1443
1361464,8785 Branch Avenue,CLINTON,MD,20735,USA,TEST1443,1443
1364198,8785 Branch Avenue,CLINTON,MD,20735,USA,TEST1443,1443
1378525,8785 Branch Avenue,CLINTON,MD,20735,USA,TEST1443,1443
1378667,8785 Branch Avenue,CLINTON,MD,20735,USA,TEST1443,1443
1404258,8785 Branch Avenue,CLINTON,MD,20735,USA,TEST1443,1443
1258739,8785 Branch Avenue,CLINTON,MD,20735,USA,TEST1443,1443
1258740,8785 Branch Avenue,CLINTON,MD,20735,USA,TEST1443,1443
1262545,8785 Branch Avenue,CLINTON,MD,20735,USA,TEST1443,1443
1262573,8785 Branch Avenue,CLINTON,MD,20735,USA,TEST1443,1443
1262968,8785 Branch Avenue,CLINTON,MD,20735,USA,TEST1443,1443
1263007,8785 Branch Avenue,CLINTON,MD,20735,USA,TEST1443,1443
1264334,8785 Branch Avenue,CLINTON,MD,20735,USA,TEST1443,1443
1264498,8785 Branch Avenue,CLINTON,MD,20735,USA,TEST1443,1443
1264664,8785 Branch Avenue,CLINTON,MD,20735,USA,TEST1443,1443
1264823,8785 Branch Avenue,CLINTON,MD,20735,USA,TEST1443,1443
1264875,8785 Branch Avenue,CLINTON,MD,20735,USA,TEST1443,1443
1264882,8785 Branch Avenue,CLINTON,MD,20735,USA,TEST1443,1443
1265577,8785 Branch Avenue,CLINTON,MD,20735,USA,TEST1443,1443
1266478,8785 Branch Avenue,CLINTON,MD,20735,USA,TEST1443,1443
1266502,8785 Branch Avenue,CLINTON,MD,20735,USA,TEST1443,1443
1266520,8785 Branch Avenue,CLINTON,MD,20735,USA,TEST1443,1443
1266565,8785 Branch Avenue,CLINTON,MD,20735,USA,TEST1443,1443
1267065,8785 Branch Avenue,CLINTON,MD,20735,USA,TEST1443,1443
1267488,8785 Branch Avenue,CLINTON,MD,20735,USA,TEST1443,1443
1303504,8785 Branch Avenue,CLINTON,MD,20735,USA,TEST1443,1443
1303825,8785 Branch Avenue,CLINTON,MD,20735,USA,TEST1443,1443
1304787,8785 Branch Avenue,CLINTON,MD,20735,USA,TEST1443,1443
1305194,8785 Branch Avenue,CLINTON,MD,20735,USA,TEST1443,1443
1305599,8785 Branch Avenue,CLINTON,MD,20735,USA,TEST1443,1443
1306542,8785 Branch Avenue,CLINTON,MD,20735,USA,TEST1443,1443
1306620,8785 Branch Avenue,CLINTON,MD,20735,USA,TEST1443,1443
1306713,8785 Branch Avenue,CLINTON,MD,20735,USA,TEST1443,1443
1308715,8785 Branch Avenue,CLINTON,MD,20735,USA,TEST1443,1443
1309001,8785 Branch Avenue,CLINTON,MD,20735,USA,TEST1443,1443
1309118,8785 Branch Avenue,CLINTON,MD,20735,USA,TEST1443,1443
1309177,8785 Branch Avenue,CLINTON,MD,20735,USA,TEST1443,1443
1309434,8785 Branch Avenue,CLINTON,MD,20735,USA,TEST1443,1443
1309821,8785 Branch Avenue,CLINTON,MD,20735,USA,TEST1443,1443
1309956,8785 Branch Avenue,CLINTON,MD,20735,USA,TEST1443,1443
1314394,8785 Branch Avenue,CLINTON,MD,20735,USA,TEST1443,1443
1314719,8785 Branch Avenue,CLINTON,MD,20735,USA,TEST1443,1443
1314781,8785 Branch Avenue,CLINTON,MD,20735,USA,TEST1443,1443
1314884,8785 Branch Avenue,CLINTON,MD,20735,USA,TEST1443,1443
1341184,8785 Branch Avenue,CLINTON,MD,20735,USA,TEST1443,1443
1343178,8785 Branch Avenue,CLINTON,MD,20735,USA,TEST1443,1443
1343471,8785 Branch Avenue,CLINTON,MD,20735,USA,TEST1443,1443
1344193,8785 Branch Avenue,CLINTON,MD,20735,USA,TEST1443,1443
1344359,8785 Branch Avenue,CLINTON,MD,20735,USA,TEST1443,1443
1344793,8785 Branch Avenue,CLINTON,MD,20735,USA,TEST1443,1443
1345112,8785 Branch Avenue,CLINTON,MD,20735,USA,TEST1443,1443
1347995,8785 Branch Avenue,CLINTON,MD,20735,USA,TEST1443,1443
1348066,8785 Branch Avenue,CLINTON,MD,20735,USA,TEST1443,1443
1348081,8785 Branch Avenue,CLINTON,MD,20735,USA,TEST1443,1443
1350652,8785 Branch Avenue,CLINTON,MD,20735,USA,TEST1443,1443
1351048,8785 Branch Avenue,CLINTON,MD,20735,USA,TEST1443,1443
1351168,8785 Branch Avenue,CLINTON,MD,20735,USA,TEST1443,1443
1351386,8785 Branch Avenue,CLINTON,MD,20735,USA,TEST1443,1443
1353779,8785 Branch Avenue,CLINTON,MD,20735,USA,TEST1443,1443
1354172,8785 Branch Avenue,CLINTON,MD,20735,USA,TEST1443,1443
1354408,8785 Branch Avenue,CLINTON,MD,20735,USA,TEST1443,1443
1354591,8785 Branch Avenue,CLINTON,MD,20735,USA,TEST1443,1443
1389426,8785 Branch Avenue,CLINTON,MD,20735,USA,TEST1443,1443
1390097,8785 Branch Avenue,CLINTON,MD,20735,USA,TEST1443,1443
1390686,8785 Branch Avenue,CLINTON,MD,20735,USA,TEST1443,1443
1390886,8785 Branch Avenue,CLINTON,MD,20735,USA,TEST1443,1443
1391360,8785 Branch Avenue,CLINTON,MD,20735,USA,TEST1443,1443
1391459,8785 Branch Avenue,CLINTON,MD,20735,USA,TEST1443,1443
1391681,8785 Branch Avenue,CLINTON,MD,20735,USA,TEST1443,1443
1392475,8785 Branch Avenue,CLINTON,MD,20735,USA,TEST1443,1443
